*******************************************************************************
 Revised: Dec 02, 2013            Adrastea / (Jupiter)                      515

 SATELLITE PHYSICAL PROPERTIES:
  Radius (km)             =  10 +- 10       Density (g cm^-3)   =              
  Mass (10^20 kg )        =                 Geometric Albedo    =   0.05-0.10
                                            V(1,0)              = +12.4 

 SATELLITE ORBITAL DATA:
  Semi-major axis, a (km) = 128.98 (10^3)   Orbital period      = 0.29826 d
  Eccentricity, e         =  ~ 0            Rotational period   = Synchronous 
  Inclination, i  (deg)   =  ~ 0 
*******************************************************************************
 
 
*******************************************************************************
Ephemeris / WWW_USER Fri Nov 10 01:12:44 2017 Pasadena, USA      / Horizons    
*******************************************************************************
Target body name: Adrastea (515)                  {source: jup310}
Center body name: Solar System Barycenter (0)     {source: DE431mx}
Center-site name: BODY CENTER
*******************************************************************************
Start time      : A.D. 2017-Jul-10 00:00:00.0000 TDB
Stop  time      : A.D. 2020-Aug-13 00:00:00.0000 TDB
Step-size       : 1440 minutes
*******************************************************************************
Center geodetic : 0.00000000,0.00000000,0.0000000 {E-lon(deg),Lat(deg),Alt(km)}
Center cylindric: 0.00000000,0.00000000,0.0000000 {E-lon(deg),Dxy(km),Dz(km)}
Center radii    : (undefined)                                                  
Output units    : KM-S                                                         
Output type     : GEOMETRIC cartesian states
Output format   : 3 (position, velocity, LT, range, range-rate)
Reference frame : ICRF/J2000.0                                                 
Coordinate systm: Ecliptic and Mean Equinox of Reference Epoch                 
*******************************************************************************
            JDTDB,            Calendar Date (TDB),                      X,                      Y,                      Z,                     VX,                     VY,                     VZ,                     LT,                     RG,                     RR,
**************************************************************************************************************************************************************************************************************************************************************************
$$SOE
2458430.500000000, A.D. 2018-Nov-08 00:00:00.0000, -3.735069129744422E+08, -7.091264743744878E+08,  1.130293865280199E+07, -1.024185333879293E+01,  1.733707194593112E+01,  2.625552538634262E-01,  2.673710313899060E+03,  8.015581869837508E+08, -1.056168619175949E+01,
2458431.500000000, A.D. 2018-Nov-09 00:00:00.0000, -3.727420025569888E+08, -7.096654757506255E+08,  1.127716399687862E+07,  6.214645503239269E+00, -3.644046609483748E+01, -1.417631224017786E+00,  2.674112560722579E+03,  8.016787775476961E+08,  2.934853097880346E+01,
2458432.500000000, A.D. 2018-Nov-10 00:00:00.0000, -3.715689138660431E+08, -7.102716049477394E+08,  1.125496585959217E+07,  3.932068310750019E+01,  9.059307897261506E+00,  6.981950505073216E-01,  2.674085561926750E+03,  8.016706835123317E+08, -2.624151655515537E+01,
2458433.500000000, A.D. 2018-Nov-11 00:00:00.0000, -3.705857889990798E+08, -7.105097959923768E+08,  1.124301126245007E+07, -1.695206430908109E+01,  8.124688959761359E+00, -1.698051106948157E-01,  2.673270985995858E+03,  8.014264797917817E+08,  6.333879948692440E-01,
2458434.500000000, A.D. 2018-Nov-12 00:00:00.0000, -3.697799057582623E+08, -7.111192369589800E+08,  1.121510326018068E+07,  1.769584386190213E+01, -3.620095530590517E+01, -1.239220080975528E+00,  2.673830991639442E+03,  8.015943652601656E+08,  2.393446247761132E+01,
2458435.500000000, A.D. 2018-Nov-13 00:00:00.0000, -3.685685523335603E+08, -7.116452813520874E+08,  1.119608555025285E+07,  3.228861610422898E+01,  1.813765652592218E+01,  9.124018303158481E-01,  2.673526391333423E+03,  8.015030483857168E+08, -3.093928450658236E+01,
2458436.500000000, A.D. 2018-Nov-14 00:00:00.0000, -3.676658055795391E+08, -7.118962059951150E+08,  1.118223185854900E+07, -1.989279139035600E+01, -2.889143165565629E+00, -6.072709540300817E-01,  2.672885945662719E+03,  8.013110476038809E+08,  1.168569759932206E+01,
2458437.500000000, A.D. 2018-Nov-15 00:00:00.0000, -3.667948393062631E+08, -7.125573764371316E+08,  1.115322152086550E+07,  2.834547464024026E+01, -3.187493617386156E+01, -9.300244572028991E-01,  2.673513337270131E+03,  8.014991348759954E+08,  1.535294771283060E+01,
2458438.500000000, A.D. 2018-Nov-16 00:00:00.0000, -3.655745810156221E+08, -7.129955816910596E+08,  1.113720366049138E+07,  2.249278652705328E+01,  2.409352540107950E+01,  9.749059088023309E-01,  2.672952790118876E+03,  8.013310870676960E+08, -3.168541799131675E+01,
2458439.500000000, A.D. 2018-Nov-17 00:00:00.0000, -3.647406185033364E+08, -7.132875030360345E+08,  1.112063983461154E+07, -1.867001117816456E+01, -1.423233184887026E+01, -9.930028946933822E-01,  2.672550938171678E+03,  8.012106148846935E+08,  2.115600159184318E+01,
2458440.500000000, A.D. 2018-Nov-18 00:00:00.0000, -3.637886184350896E+08, -7.139739196404594E+08,  1.109169257996601E+07,  3.675179966260047E+01, -2.402167744458358E+01, -5.316251797832408E-01,  2.673145161775972E+03,  8.013887586396260E+08,  4.710657734373349E+00,
2458441.500000000, A.D. 2018-Nov-19 00:00:00.0000, -3.625901696073490E+08, -7.143272459826747E+08,  1.107811212624139E+07,  1.123139391313378E+01,  2.614124888281312E+01,  8.795330663634324E-01,  2.672382988623200E+03,  8.011602648767351E+08, -2.837891090675586E+01,
2458442.500000000, A.D. 2018-Nov-20 00:00:00.0000, -3.618043107768362E+08, -7.146824178289080E+08,  1.105837291012710E+07, -1.344918751046762E+01, -2.439233240893908E+01, -1.278542506032400E+00,  2.672253573614624E+03,  8.011214672332121E+08,  2.781676366430438E+01,
2458443.500000000, A.D. 2018-Nov-21 00:00:00.0000, -3.607662912408897E+08, -7.153641506858203E+08,  1.103060170223054E+07,  4.180216372629922E+01, -1.368697886330103E+01, -9.602295311603015E-02,  2.672720397418203E+03,  8.012614174887400E+08, -6.602959582046450E+00,
2458444.500000000, A.D. 2018-Nov-22 00:00:00.0000, -3.596170515283141E+08, -7.156466979269180E+08,  1.101857016759318E+07,  3.953538305406568E-03,  2.401105343463058E+01,  6.393787507523871E-01,  2.671838051811222E+03,  8.009968969304174E+08, -2.144553604418278E+01,
2458445.500000000, A.D. 2018-Nov-23 00:00:00.0000, -3.588515340552651E+08, -7.160788995406284E+08,  1.099557547649038E+07, -4.909681086298923E+00, -3.201373871858589E+01, -1.428231409552124E+00,  2.671980235269652E+03,  8.010395224589070E+08,  3.079811228206988E+01,
2458446.500000000, A.D. 2018-Nov-24 00:00:00.0000, -3.577331474508551E+08, -7.167258052641891E+08,  1.096994921024221E+07,  4.283110105688683E+01, -2.233635419407273E+00,  3.215861090667808E-01,  2.672240289751600E+03,  8.011174848312643E+08, -1.712317222090164E+01,
2458447.500000000, A.D. 2018-Nov-25 00:00:00.0000, -3.566533885807227E+08, -7.169601895140873E+08,  1.095839305535161E+07, -9.693723799462083E+00,  1.800053593988435E+01,  2.851796502462642E-01,  2.671333305170461E+03,  8.008455776943165E+08, -1.179408786181416E+01,
2458448.500000000, A.D. 2018-Nov-26 00:00:00.0000, -3.558777944297715E+08, -7.174718907924169E+08,  1.093248212709904E+07,  5.811309420765223E+00, -3.607781119021722E+01, -1.422976953242653E+00,  2.671709804957546E+03,  8.009584494909233E+08,  2.971582705183411E+01,
2458449.500000000, A.D. 2018-Nov-27 00:00:00.0000, -3.546953779441691E+08, -7.180577847450020E+08,  1.090969349275163E+07,  3.969943271024508E+01,  8.825622648090370E+00,  6.679058667214415E-01,  2.671710589912899E+03,  8.009586848146179E+08, -2.548349381272871E+01,
2458450.500000000, A.D. 2018-Nov-28 00:00:00.0000, -3.536964015210815E+08, -7.182727440720190E+08,  1.089744650574860E+07, -1.657138166043261E+01,  8.906308302216791E+00, -1.390448102614839E-01,  2.670879253610146E+03,  8.007094564609911E+08, -6.711993611444383E-01,
2458451.500000000, A.D. 2018-Nov-29 00:00:00.0000, -3.528812931699778E+08, -7.188556723950371E+08,  1.086931278006399E+07,  1.729365788307926E+01, -3.604191930427650E+01, -1.262258931281771E+00,  2.671423244736299E+03,  8.008725408978307E+08,  2.471380760431718E+01,
2458452.500000000, A.D. 2018-Nov-30 00:00:00.0000, -3.516591329021472E+08, -7.193623736202699E+08,  1.084967566422591E+07,  3.283515624173026E+01,  1.802649105301234E+01,  8.974489185558987E-01,  2.671146796801330E+03,  8.007896638918972E+08, -3.060057595627179E+01,
2458453.500000000, A.D. 2018-Dec-01 00:00:00.0000, -3.507407499927185E+08, -7.195884108550035E+08,  1.083565460840699E+07, -1.971171361642760E+01, -2.053189323938247E+00, -5.791186160831283E-01,  2.670479994059961E+03,  8.005897614590613E+08,  1.047337567205732E+01,
2458454.500000000, A.D. 2018-Dec-02 00:00:00.0000, -3.498614095144562E+08, -7.202239765567070E+08,  1.080629743420577E+07,  2.801792632339030E+01, -3.189603488116578E+01, -9.645481644433644E-01,  2.671101544212909E+03,  8.007760975071837E+08,  1.643340095932183E+01,
2458455.500000000, A.D. 2018-Dec-03 00:00:00.0000, -3.486291113513018E+08, -7.206426950679413E+08,  1.078972720102274E+07,  2.314615280295557E+01,  2.415464938934196E+01,  9.780906732552737E-01,  2.670564579124501E+03,  8.006151194234698E+08, -3.180771929969079E+01,
2458456.500000000, A.D. 2018-Dec-04 00:00:00.0000, -3.477805074521729E+08, -7.209082012213596E+08,  1.077305549467614E+07, -1.870041530311824E+01, -1.341457693740379E+01, -9.772041163341161E-01,  2.670130004591031E+03,  8.004848372558961E+08,  2.019250112845307E+01,
